[{"OBJECT_NAME":"ONEWEB-0667","OBJECT_ID":"2023-029AH","EPOCH":"2026-03-08T02:51:45.636480","MEAN_MOTION":13.20772133,"ECCENTRICITY":0.0001491,"INCLINATION":87.9176,"RA_OF_ASC_NODE":294.6043,"ARG_OF_PERICENTER":91.2379,"MEAN_ANOMALY":268.8925,"EPHEMERIS_TYPE":0,"CLASSIFICATION_TYPE":"U","NORAD_CAT_ID":55827,"ELEMENT_SET_NO":999,"REV_AT_EPOCH":14780,"BSTAR":0.00032823,"MEAN_MOTION_DOT":1.46e-6,"MEAN_MOTION_DDOT":0},{"OBJECT_NAME":"ONEWEB-0669","OBJECT_ID":"2023-029AJ","EPOCH":"2026-03-08T02:44:56.465088","MEAN_MOTION":13.20771986,"ECCENTRICITY":0.0001259,"INCLINATION":87.9161,"RA_OF_ASC_NODE":294.6301,"ARG_OF_PERICENTER":64.2148,"MEAN_ANOMALY":295.9115,"EPHEMERIS_TYPE":0,"CLASSIFICATION_TYPE":"U","NORAD_CAT_ID":55828,"ELEMENT_SET_NO":999,"REV_AT_EPOCH":14780,"BSTAR":0.00036294,"MEAN_MOTION_DOT":1.61e-6,"MEAN_MOTION_DDOT":0},{"OBJECT_NAME":"ONEWEB-0670","OBJECT_ID":"2023-029AK","EPOCH":"2026-03-08T03:04:08.069952","MEAN_MOTION":13.14502312,"ECCENTRICITY":0.000126,"INCLINATION":87.8981,"RA_OF_ASC_NODE":309.9155,"ARG_OF_PERICENTER":87.9859,"MEAN_ANOMALY":272.1415,"EPHEMERIS_TYPE":0,"CLASSIFICATION_TYPE":"U","NORAD_CAT_ID":55829,"ELEMENT_SET_NO":999,"REV_AT_EPOCH":14615,"BSTAR":0.00085286,"MEAN_MOTION_DOT":3.29e-6,"MEAN_MOTION_DDOT":0},{"OBJECT_NAME":"ONEWEB-0671","OBJECT_ID":"2023-029AL","EPOCH":"2026-03-08T03:37:56.500896","MEAN_MOTION":13.19726185,"ECCENTRICITY":0.0001595,"INCLINATION":87.923,"RA_OF_ASC_NODE":325.1079,"ARG_OF_PERICENTER":85.304,"MEAN_ANOMALY":274.8275,"EPHEMERIS_TYPE":0,"CLASSIFICATION_TYPE":"U","NORAD_CAT_ID":55830,"ELEMENT_SET_NO":999,"REV_AT_EPOCH":14557,"BSTAR":0.00024907,"MEAN_MOTION_DOT":1.13e-6,"MEAN_MOTION_DDOT":0},{"OBJECT_NAME":"ONEWEB-0672","OBJECT_ID":"2023-029AM","EPOCH":"2026-03-08T02:38:05.050752","MEAN_MOTION":13.20790528,"ECCENTRICITY":0.0001873,"INCLINATION":87.917,"RA_OF_ASC_NODE":294.618,"ARG_OF_PERICENTER":75.4316,"MEAN_ANOMALY":284.7025,"EPHEMERIS_TYPE":0,"CLASSIFICATION_TYPE":"U","NORAD_CAT_ID":55831,"ELEMENT_SET_NO":999,"REV_AT_EPOCH":14780,"BSTAR":0.0055215,"MEAN_MOTION_DOT":2.259e-5,"MEAN_MOTION_DDOT":0},{"OBJECT_NAME":"ONEWEB-0673","OBJECT_ID":"2023-029AN","EPOCH":"2026-03-08T03:04:56.680320","MEAN_MOTION":13.19727562,"ECCENTRICITY":0.0001604,"INCLINATION":87.9236,"RA_OF_ASC_NODE":325.0977,"ARG_OF_PERICENTER":82.5544,"MEAN_ANOMALY":277.5771,"EPHEMERIS_TYPE":0,"CLASSIFICATION_TYPE":"U","NORAD_CAT_ID":55832,"ELEMENT_SET_NO":999,"REV_AT_EPOCH":14557,"BSTAR":0.00032017,"MEAN_MOTION_DOT":1.41e-6,"MEAN_MOTION_DDOT":0},{"OBJECT_NAME":"ONEWEB-0674","OBJECT_ID":"2023-029AP","EPOCH":"2026-03-08T02:18:27.258912","MEAN_MOTION":13.14502127,"ECCENTRICITY":0.0001176,"INCLINATION":87.8979,"RA_OF_ASC_NODE":309.8991,"ARG_OF_PERICENTER":85.4786,"MEAN_ANOMALY":274.6478,"EPHEMERIS_TYPE":0,"CLASSIFICATION_TYPE":"U","NORAD_CAT_ID":55833,"ELEMENT_SET_NO":999,"REV_AT_EPOCH":14613,"BSTAR":1.6036e-5,"MEAN_MOTION_DOT":1.9e-7,"MEAN_MOTION_DDOT":0},{"OBJECT_NAME":"ONEWEB-0675","OBJECT_ID":"2023-029AQ","EPOCH":"2026-03-08T03:26:34.284768","MEAN_MOTION":13.19725954,"ECCENTRICITY":0.0001972,"INCLINATION":87.9225,"RA_OF_ASC_NODE":325.1111,"ARG_OF_PERICENTER":75.2574,"MEAN_ANOMALY":284.8778,"EPHEMERIS_TYPE":0,"CLASSIFICATION_TYPE":"U","NORAD_CAT_ID":55834,"ELEMENT_SET_NO":999,"REV_AT_EPOCH":14559,"BSTAR":0.00026381,"MEAN_MOTION_DOT":1.19e-6,"MEAN_MOTION_DDOT":0},{"OBJECT_NAME":"ONEWEB-0720","OBJECT_ID":"2023-029AR","EPOCH":"2026-03-08T03:15:12.641472","MEAN_MOTION":13.19725455,"ECCENTRICITY":0.0001797,"INCLINATION":87.9231,"RA_OF_ASC_NODE":325.1129,"ARG_OF_PERICENTER":91.0438,"MEAN_ANOMALY":269.0901,"EPHEMERIS_TYPE":0,"CLASSIFICATION_TYPE":"U","NORAD_CAT_ID":55835,"ELEMENT_SET_NO":999,"REV_AT_EPOCH":14551,"BSTAR":0.00045972,"MEAN_MOTION_DOT":1.97e-6,"MEAN_MOTION_DDOT":0},{"OBJECT_NAME":"ONEWEB-0537","OBJECT_ID":"2023-043A","EPOCH":"2026-03-08T01:01:23.231136","MEAN_MOTION":13.16593376,"ECCENTRICITY":0.0001657,"INCLINATION":87.9004,"RA_OF_ASC_NODE":248.8902,"ARG_OF_PERICENTER":88.2734,"MEAN_ANOMALY":271.8587,"EPHEMERIS_TYPE":0,"CLASSIFICATION_TYPE":"U","NORAD_CAT_ID":56046,"ELEMENT_SET_NO":999,"REV_AT_EPOCH":14565,"BSTAR":0.00011882,"MEAN_MOTION_DOT":5.8e-7,"MEAN_MOTION_DDOT":0},{"OBJECT_NAME":"ONEWEB-0538","OBJECT_ID":"2023-043B","EPOCH":"2026-03-08T00:52:17.196096","MEAN_MOTION":13.16594342,"ECCENTRICITY":0.0001862,"INCLINATION":87.9003,"RA_OF_ASC_NODE":248.8942,"ARG_OF_PERICENTER":94.0581,"MEAN_ANOMALY":266.0763,"EPHEMERIS_TYPE":0,"CLASSIFICATION_TYPE":"U","NORAD_CAT_ID":56047,"ELEMENT_SET_NO":999,"REV_AT_EPOCH":14566,"BSTAR":0.00032284,"MEAN_MOTION_DOT":1.36e-6,"MEAN_MOTION_DDOT":0},{"OBJECT_NAME":"ONEWEB-0546","OBJECT_ID":"2023-043C","EPOCH":"2026-03-08T00:34:02.903808","MEAN_MOTION":13.16594013,"ECCENTRICITY":0.0001764,"INCLINATION":87.9007,"RA_OF_ASC_NODE":248.8939,"ARG_OF_PERICENTER":71.472,"MEAN_ANOMALY":288.6603,"EPHEMERIS_TYPE":0,"CLASSIFICATION_TYPE":"U","NORAD_CAT_ID":56048,"ELEMENT_SET_NO":999,"REV_AT_EPOCH":14565,"BSTAR":0.00012229,"MEAN_MOTION_DOT":6.0e-7,"MEAN_MOTION_DDOT":0},{"OBJECT_NAME":"ONEWEB-0547","OBJECT_ID":"2023-043D","EPOCH":"2026-03-08T01:01:38.314848","MEAN_MOTION":13.21824708,"ECCENTRICITY":0.0001702,"INCLINATION":87.9167,"RA_OF_ASC_NODE":264.1408,"ARG_OF_PERICENTER":93.7856,"MEAN_ANOMALY":266.3473,"EPHEMERIS_TYPE":0,"CLASSIFICATION_TYPE":"U","NORAD_CAT_ID":56049,"ELEMENT_SET_NO":999,"REV_AT_EPOCH":14486,"BSTAR":0.00029775,"MEAN_MOTION_DOT":1.36e-6,"MEAN_MOTION_DDOT":0},{"OBJECT_NAME":"ONEWEB-0548","OBJECT_ID":"2023-043E","EPOCH":"2026-03-08T01:09:23.170176","MEAN_MOTION":13.16593102,"ECCENTRICITY":0.0001113,"INCLINATION":87.9005,"RA_OF_ASC_NODE":248.8886,"ARG_OF_PERICENTER":99.9781,"MEAN_ANOMALY":260.1475,"EPHEMERIS_TYPE":0,"CLASSIFICATION_TYPE":"U","NORAD_CAT_ID":56050,"ELEMENT_SET_NO":999,"REV_AT_EPOCH":14565,"BSTAR":0.00012575,"MEAN_MOTION_DOT":6.1e-7,"MEAN_MOTION_DDOT":0},{"OBJECT_NAME":"ONEWEB-0549","OBJECT_ID":"2023-043F","EPOCH":"2026-03-08T00:50:59.538912","MEAN_MOTION":13.21827146,"ECCENTRICITY":0.0001855,"INCLINATION":87.9162,"RA_OF_ASC_NODE":264.1541,"ARG_OF_PERICENTER":94.8331,"MEAN_ANOMALY":265.3015,"EPHEMERIS_TYPE":0,"CLASSIFICATION_TYPE":"U","NORAD_CAT_ID":56051,"ELEMENT_SET_NO":999,"REV_AT_EPOCH":14486,"BSTAR":0.00028647,"MEAN_MOTION_DOT":1.31e-6,"MEAN_MOTION_DDOT":0},{"OBJECT_NAME":"ONEWEB-0550","OBJECT_ID":"2023-043G","EPOCH":"2026-03-08T00:32:00.623616","MEAN_MOTION":13.21824687,"ECCENTRICITY":0.000152,"INCLINATION":87.9164,"RA_OF_ASC_NODE":264.1523,"ARG_OF_PERICENTER":90.5039,"MEAN_ANOMALY":269.6269,"EPHEMERIS_TYPE":0,"CLASSIFICATION_TYPE":"U","NORAD_CAT_ID":56052,"ELEMENT_SET_NO":999,"REV_AT_EPOCH":14486,"BSTAR":0.00028982,"MEAN_MOTION_DOT":1.33e-6,"MEAN_MOTION_DDOT":0},{"OBJECT_NAME":"ONEWEB-0551","OBJECT_ID":"2023-043H","EPOCH":"2026-03-08T01:48:04.010688","MEAN_MOTION":13.15548632,"ECCENTRICITY":0.0001897,"INCLINATION":87.8936,"RA_OF_ASC_NODE":279.4185,"ARG_OF_PERICENTER":93.1809,"MEAN_ANOMALY":266.9538,"EPHEMERIS_TYPE":0,"CLASSIFICATION_TYPE":"U","NORAD_CAT_ID":56053,"ELEMENT_SET_NO":999,"REV_AT_EPOCH":14310,"BSTAR":2.9884e-5,"MEAN_MOTION_DOT":2.4e-7,"MEAN_MOTION_DDOT":0},{"OBJECT_NAME":"ONEWEB-0552","OBJECT_ID":"2023-043J","EPOCH":"2026-03-08T02:13:55.538688","MEAN_MOTION":13.21826281,"ECCENTRICITY":0.0001624,"INCLINATION":87.9162,"RA_OF_ASC_NODE":264.1463,"ARG_OF_PERICENTER":100.7355,"MEAN_ANOMALY":259.3962,"EPHEMERIS_TYPE":0,"CLASSIFICATION_TYPE":"U","NORAD_CAT_ID":56054,"ELEMENT_SET_NO":999,"REV_AT_EPOCH":14487,"BSTAR":0.00016769,"MEAN_MOTION_DOT":8.2e-7,"MEAN_MOTION_DDOT":0},{"OBJECT_NAME":"ONEWEB-0553","OBJECT_ID":"2023-043K","EPOCH":"2026-03-08T00:43:09.812352","MEAN_MOTION":13.16593709,"ECCENTRICITY":0.0001484,"INCLINATION":87.9006,"RA_OF_ASC_NODE":248.8956,"ARG_OF_PERICENTER":81.7219,"MEAN_ANOMALY":278.408,"EPHEMERIS_TYPE":0,"CLASSIFICATION_TYPE":"U","NORAD_CAT_ID":56055,"ELEMENT_SET_NO":999,"REV_AT_EPOCH":14566,"BSTAR":0.00023083,"MEAN_MOTION_DOT":1.01e-6,"MEAN_MOTION_DDOT":0},{"OBJECT_NAME":"ONEWEB-0554","OBJECT_ID":"2023-043L","EPOCH":"2026-03-08T00:24:55.260864","MEAN_MOTION":13.16593851,"ECCENTRICITY":0.0001256,"INCLINATION":87.9001,"RA_OF_ASC_NODE":248.9081,"ARG_OF_PERICENTER":95.6117,"MEAN_ANOMALY":264.5157,"EPHEMERIS_TYPE":0,"CLASSIFICATION_TYPE":"U","NORAD_CAT_ID":56056,"ELEMENT_SET_NO":999,"REV_AT_EPOCH":14564,"BSTAR":0.00020106,"MEAN_MOTION_DOT":9.0e-7,"MEAN_MOTION_DDOT":0},{"OBJECT_NAME":"ONEWEB-0555","OBJECT_ID":"2023-043M","EPOCH":"2026-03-08T01:19:38.758080","MEAN_MOTION":13.16593962,"ECCENTRICITY":0.0001606,"INCLINATION":87.9005,"RA_OF_ASC_NODE":248.8859,"ARG_OF_PERICENTER":75.1345,"MEAN_ANOMALY":284.9963,"EPHEMERIS_TYPE":0,"CLASSIFICATION_TYPE":"U","NORAD_CAT_ID":56057,"ELEMENT_SET_NO":999,"REV_AT_EPOCH":14565,"BSTAR":-0.00010241,"MEAN_MOTION_DOT":-2.6e-7,"MEAN_MOTION_DDOT":0},{"OBJECT_NAME":"ONEWEB-0557","OBJECT_ID":"2023-043N","EPOCH":"2026-03-07T23:50:43.361952","MEAN_MOTION":13.16593348,"ECCENTRICITY":6.93e-5,"INCLINATION":87.9003,"RA_OF_ASC_NODE":248.91,"ARG_OF_PERICENTER":43.9612,"MEAN_ANOMALY":316.1574,"EPHEMERIS_TYPE":0,"CLASSIFICATION_TYPE":"U","NORAD_CAT_ID":56058,"ELEMENT_SET_NO":999,"REV_AT_EPOCH":14564,"BSTAR":-0.00013781,"MEAN_MOTION_DOT":-4.0e-7,"MEAN_MOTION_DDOT":0},{"OBJECT_NAME":"ONEWEB-0558","OBJECT_ID":"2023-043P","EPOCH":"2026-03-08T02:04:26.376096","MEAN_MOTION":13.21826255,"ECCENTRICITY":0.0002134,"INCLINATION":87.9163,"RA_OF_ASC_NODE":264.1406,"ARG_OF_PERICENTER":97.3842,"MEAN_ANOMALY":262.7535,"EPHEMERIS_TYPE":0,"CLASSIFICATION_TYPE":"U","NORAD_CAT_ID":56059,"ELEMENT_SET_NO":999,"REV_AT_EPOCH":14488,"BSTAR":6.0029e-5,"MEAN_MOTION_DOT":3.8e-7,"MEAN_MOTION_DDOT":0},{"OBJECT_NAME":"ONEWEB-0559","OBJECT_ID":"2023-043Q","EPOCH":"2026-03-08T01:47:49.822944","MEAN_MOTION":13.21824025,"ECCENTRICITY":0.0001772,"INCLINATION":87.9165,"RA_OF_ASC_NODE":264.1363,"ARG_OF_PERICENTER":100.5049,"MEAN_ANOMALY":259.6285,"EPHEMERIS_TYPE":0,"CLASSIFICATION_TYPE":"U","NORAD_CAT_ID":56060,"ELEMENT_SET_NO":999,"REV_AT_EPOCH":14489,"BSTAR":-5.4622e-5,"MEAN_MOTION_DOT":-1.0e-7,"MEAN_MOTION_DDOT":0}]
